{
  "type": "FeatureCollection",
  "features": [
    {
      "type": "Feature",
      "properties": {
        "norad_id": 25590,
        "name": "COSMOS 2361",
        "group": "musson",
        "lat": 21.74505105204457,
        "lon": -7.100107251327049,
        "alt_km": 988.8107311613194,
        "timestamp": "2025-12-04T15:47:54.367628+00:00",
        "meta_object_name": "COSMOS 2361",
        "meta_object_id": "1998-076A",
        "meta_epoch": "2025-12-04T03:46:53.901984",
        "meta_mean_motion": 13.73216093,
        "meta_eccentricity": 0.00301484,
        "meta_inclination": 82.9341,
        "meta_ra_of_asc_node": 350.4345,
        "meta_arg_of_pericenter": 290.5381,
        "meta_mean_anomaly": 137.2839,
        "meta_ephemeris_type": 0,
        "meta_classification_type": "U",
        "meta_norad_cat_id": 25590,
        "meta_element_set_no": 999,
        "meta_rev_at_epoch": 34993,
        "meta_bstar": 9.2888965e-05,
        "meta_mean_motion_dot": 1.01e-06,
        "meta_mean_motion_ddot": 0,
        "tle_line1": "1 25590U 98076A   25338.15756831  .00000101  00000+0  92889-4 0  9999",
        "tle_line2": "2 25590  82.9341 350.4345 0030148 290.5381 137.2839 13.73216093349934"
      },
      "geometry": {
        "type": "Point",
        "coordinates": [
          -7.100107251327049,
          21.74505105204457
        ]
      }
    },
    {
      "type": "Feature",
      "properties": {
        "norad_id": 26818,
        "name": "COSMOS 2378",
        "group": "musson",
        "lat": 66.2558676757472,
        "lon": 22.109498190836447,
        "alt_km": 1000.4833103659339,
        "timestamp": "2025-12-04T15:47:54.367652+00:00",
        "meta_object_name": "COSMOS 2378",
        "meta_object_id": "2001-023A",
        "meta_epoch": "2025-12-04T03:31:38.059392",
        "meta_mean_motion": 13.74140966,
        "meta_eccentricity": 0.00319506,
        "meta_inclination": 82.9279,
        "meta_ra_of_asc_node": 6.0967,
        "meta_arg_of_pericenter": 229.4062,
        "meta_mean_anomaly": 190.1028,
        "meta_ephemeris_type": 0,
        "meta_classification_type": "U",
        "meta_norad_cat_id": 26818,
        "meta_element_set_no": 999,
        "meta_rev_at_epoch": 22805,
        "meta_bstar": 9.6677365e-05,
        "meta_mean_motion_dot": 1.06e-06,
        "meta_mean_motion_ddot": 0,
        "tle_line1": "1 26818U 01023A   25338.14696828  .00000106  00000+0  96677-4 0  9991",
        "tle_line2": "2 26818  82.9279   6.0967 0031950 229.4062 190.1028 13.74140966228054"
      },
      "geometry": {
        "type": "Point",
        "coordinates": [
          22.109498190836447,
          66.2558676757472
        ]
      }
    },
    {
      "type": "Feature",
      "properties": {
        "norad_id": 27436,
        "name": "COSMOS 2389",
        "group": "musson",
        "lat": -64.24882738872523,
        "lon": 147.83396726493348,
        "alt_km": 1021.851313264624,
        "timestamp": "2025-12-04T15:47:54.367666+00:00",
        "meta_object_name": "COSMOS 2389",
        "meta_object_id": "2002-026A",
        "meta_epoch": "2025-12-04T08:13:02.946144",
        "meta_mean_motion": 13.75153316,
        "meta_eccentricity": 0.00477652,
        "meta_inclination": 82.9495,
        "meta_ra_of_asc_node": 313.2019,
        "meta_arg_of_pericenter": 83.5513,
        "meta_mean_anomaly": 38.5368,
        "meta_ephemeris_type": 0,
        "meta_classification_type": "U",
        "meta_norad_cat_id": 27436,
        "meta_element_set_no": 999,
        "meta_rev_at_epoch": 18033,
        "meta_bstar": 7.8384773e-05,
        "meta_mean_motion_dot": 9.1e-07,
        "meta_mean_motion_ddot": 0,
        "tle_line1": "1 27436U 02026A   25338.34239521  .00000091  00000+0  78385-4 0  9996",
        "tle_line2": "2 27436  82.9495 313.2019 0047765  83.5513  38.5368 13.75153316180337"
      },
      "geometry": {
        "type": "Point",
        "coordinates": [
          147.83396726493348,
          -64.24882738872523
        ]
      }
    },
    {
      "type": "Feature",
      "properties": {
        "norad_id": 27818,
        "name": "COSMOS 2398",
        "group": "musson",
        "lat": -79.14709638839749,
        "lon": -121.56209408976956,
        "alt_km": 1017.7997237508707,
        "timestamp": "2025-12-04T15:47:54.367678+00:00",
        "meta_object_name": "COSMOS 2398",
        "meta_object_id": "2003-023A",
        "meta_epoch": "2025-12-04T06:30:56.105280",
        "meta_mean_motion": 13.72384481,
        "meta_eccentricity": 0.00322601,
        "meta_inclination": 82.9477,
        "meta_ra_of_asc_node": 278.939,
        "meta_arg_of_pericenter": 134.5424,
        "meta_mean_anomaly": 33.6574,
        "meta_ephemeris_type": 0,
        "meta_classification_type": "U",
        "meta_norad_cat_id": 27818,
        "meta_element_set_no": 999,
        "meta_rev_at_epoch": 12700,
        "meta_bstar": 6.6665711e-05,
        "meta_mean_motion_dot": 7.6e-07,
        "meta_mean_motion_ddot": 0,
        "tle_line1": "1 27818U 03023A   25338.27148270  .00000076  00000+0  66666-4 0  9992",
        "tle_line2": "2 27818  82.9477 278.9390 0032260 134.5424  33.6574 13.72384481127008"
      },
      "geometry": {
        "type": "Point",
        "coordinates": [
          -121.56209408976956,
          -79.14709638839749
        ]
      }
    },
    {
      "type": "Feature",
      "properties": {
        "norad_id": 28380,
        "name": "COSMOS 2407",
        "group": "musson",
        "lat": -0.8809147705407473,
        "lon": -141.2332444015114,
        "alt_km": 973.4397871595802,
        "timestamp": "2025-12-04T15:47:54.367689+00:00",
        "meta_object_name": "COSMOS 2407",
        "meta_object_id": "2004-028A",
        "meta_epoch": "2025-12-04T04:08:04.971264",
        "meta_mean_motion": 13.76312221,
        "meta_eccentricity": 0.0040515,
        "meta_inclination": 82.9613,
        "meta_ra_of_asc_node": 219.2354,
        "meta_arg_of_pericenter": 78.0751,
        "meta_mean_anomaly": 35.0272,
        "meta_ephemeris_type": 0,
        "meta_classification_type": "U",
        "meta_norad_cat_id": 28380,
        "meta_element_set_no": 999,
        "meta_rev_at_epoch": 7305,
        "meta_bstar": 0.00010845447,
        "meta_mean_motion_dot": 1.22e-06,
        "meta_mean_motion_ddot": 0,
        "tle_line1": "1 28380U 04028A   25338.17227976  .00000122  00000+0  10845-3 0  9992",
        "tle_line2": "2 28380  82.9613 219.2354 0040515  78.0751  35.0272 13.76312221 73053"
      },
      "geometry": {
        "type": "Point",
        "coordinates": [
          -141.2332444015114,
          -0.8809147705407473
        ]
      }
    },
    {
      "type": "Feature",
      "properties": {
        "norad_id": 28521,
        "name": "COSMOS 2414",
        "group": "musson",
        "lat": -71.86443736339763,
        "lon": 168.5721406887815,
        "alt_km": 959.9176397124393,
        "timestamp": "2025-12-04T15:47:54.367700+00:00",
        "meta_object_name": "COSMOS 2414",
        "meta_object_id": "2005-002A",
        "meta_epoch": "2025-12-04T02:18:41.717088",
        "meta_mean_motion": 13.87901271,
        "meta_eccentricity": 0.00403607,
        "meta_inclination": 82.9499,
        "meta_ra_of_asc_node": 191.1955,
        "meta_arg_of_pericenter": 163.9707,
        "meta_mean_anomaly": 196.2744,
        "meta_ephemeris_type": 0,
        "meta_classification_type": "U",
        "meta_norad_cat_id": 28521,
        "meta_element_set_no": 999,
        "meta_rev_at_epoch": 5675,
        "meta_bstar": 0.00010319171,
        "meta_mean_motion_dot": 1.39e-06,
        "meta_mean_motion_ddot": 0,
        "tle_line1": "1 28521U 05002A   25338.09631617  .00000139  00000+0  10319-3 0  9998",
        "tle_line2": "2 28521  82.9499 191.1955 0040360 163.9707 196.2744 13.87901271 56753"
      },
      "geometry": {
        "type": "Point",
        "coordinates": [
          168.5721406887815,
          -71.86443736339763
        ]
      }
    },
    {
      "type": "Feature",
      "properties": {
        "norad_id": 32052,
        "name": "COSMOS 2429",
        "group": "musson",
        "lat": 69.814042145937,
        "lon": 8.846577178516837,
        "alt_km": 945.8032566605361,
        "timestamp": "2025-12-04T15:47:54.367710+00:00",
        "meta_object_name": "COSMOS 2429",
        "meta_object_id": "2007-038A",
        "meta_epoch": "2025-12-04T06:43:31.388160",
        "meta_mean_motion": 13.75148168,
        "meta_eccentricity": 0.0039595,
        "meta_inclination": 82.9805,
        "meta_ra_of_asc_node": 349.5456,
        "meta_arg_of_pericenter": 60.8741,
        "meta_mean_anomaly": 299.6369,
        "meta_ephemeris_type": 0,
        "meta_classification_type": "U",
        "meta_norad_cat_id": 32052,
        "meta_element_set_no": 999,
        "meta_rev_at_epoch": 91486,
        "meta_bstar": 7.7958251e-05,
        "meta_mean_motion_dot": 9.1e-07,
        "meta_mean_motion_ddot": 0,
        "tle_line1": "1 32052U 07038A   25338.28022440  .00000091  00000+0  77958-4 0  9992",
        "tle_line2": "2 32052  82.9805 349.5456 0039595  60.8741 299.6369 13.75148168914865"
      },
      "geometry": {
        "type": "Point",
        "coordinates": [
          8.846577178516837,
          69.814042145937
        ]
      }
    },
    {
      "type": "Feature",
      "properties": {
        "norad_id": 35635,
        "name": "COSMOS 2454",
        "group": "musson",
        "lat": -79.55540913103677,
        "lon": 132.6456931520736,
        "alt_km": 951.2205659776173,
        "timestamp": "2025-12-04T15:47:54.367721+00:00",
        "meta_object_name": "COSMOS 2454",
        "meta_object_id": "2009-039A",
        "meta_epoch": "2025-12-04T06:39:36.744768",
        "meta_mean_motion": 13.89927112,
        "meta_eccentricity": 0.00204931,
        "meta_inclination": 82.9557,
        "meta_ra_of_asc_node": 175.0596,
        "meta_arg_of_pericenter": 96.3483,
        "meta_mean_anomaly": 77.2751,
        "meta_ephemeris_type": 0,
        "meta_classification_type": "U",
        "meta_norad_cat_id": 35635,
        "meta_element_set_no": 999,
        "meta_rev_at_epoch": 83032,
        "meta_bstar": 9.7860074e-05,
        "meta_mean_motion_dot": 1.37e-06,
        "meta_mean_motion_ddot": 0,
        "tle_line1": "1 35635U 09039A   25338.27750862  .00000137  00000+0  97860-4 0  9995",
        "tle_line2": "2 35635  82.9557 175.0596 0020493  96.3483  77.2751 13.89927112830322"
      },
      "geometry": {
        "type": "Point",
        "coordinates": [
          132.6456931520736,
          -79.55540913103677
        ]
      }
    },
    {
      "type": "Feature",
      "properties": {
        "norad_id": 36519,
        "name": "COSMOS 2463",
        "group": "musson",
        "lat": 50.29560555196788,
        "lon": -155.90477642459157,
        "alt_km": 1014.8804701879699,
        "timestamp": "2025-12-04T15:47:54.367731+00:00",
        "meta_object_name": "COSMOS 2463",
        "meta_object_id": "2010-017A",
        "meta_epoch": "2025-12-04T06:45:04.885920",
        "meta_mean_motion": 13.71648059,
        "meta_eccentricity": 0.00350797,
        "meta_inclination": 82.962,
        "meta_ra_of_asc_node": 32.9279,
        "meta_arg_of_pericenter": 312.3201,
        "meta_mean_anomaly": 116.4095,
        "meta_ephemeris_type": 0,
        "meta_classification_type": "U",
        "meta_norad_cat_id": 36519,
        "meta_element_set_no": 999,
        "meta_rev_at_epoch": 78121,
        "meta_bstar": 9.888716e-05,
        "meta_mean_motion_dot": 1.04e-06,
        "meta_mean_motion_ddot": 0,
        "tle_line1": "1 36519U 10017A   25338.28130655  .00000104  00000+0  98887-4 0  9992",
        "tle_line2": "2 36519  82.9620  32.9279 0035079 312.3201 116.4095 13.71648059781210"
      },
      "geometry": {
        "type": "Point",
        "coordinates": [
          -155.90477642459157,
          50.29560555196788
        ]
      }
    }
  ]
}